{
  "type" : "FeatureCollection",
  "features" : [{"type":"Feature","id":0,"geometry":{"type":"LineString","coordinates":[[25.859660164846279,39.2152917494926],[25.859541988282007,39.215143983164602],[25.859389585383852,39.215144346877658],[25.859286259533178,39.215002962334687],[25.859163689433512,39.214712890980238],[25.859021446464656,39.214548288406107],[25.858825441625854,39.214378583979503],[25.85857598953147,39.214215691919804],[25.858350140541951,39.214076261722489],[25.858111018418526,39.214014519702587],[25.857617930678597,39.213909150211343],[25.857406144272925,39.213721815776736],[25.857249219670049,39.21358128414645],[25.856959444458507,39.213341554699198],[25.856654826429974,39.213119940409477],[25.856443201879788,39.212938561339648],[25.856176719070508,39.212710378113727],[25.855950722721829,39.21256498573667],[25.855778958725391,39.212442567814428],[25.855446383451824,39.212322711693972],[25.855107462145494,39.212176661617512],[25.854971580875421,39.212038246655695],[25.85487576943045,39.21189077857283],[25.854560371696877,39.211550135068308],[25.854347973645794,39.21133896556217]]},"properties":{"FID":0,"Id":0}},{"type":"Feature","id":1,"geometry":{"type":"LineString","coordinates":[[25.859255827552964,39.215301435994739],[25.859304761766104,39.215413890144802],[25.85955060455527,39.215439763806053],[25.859652831238037,39.215539447355539],[25.859840711662869,39.215691400792323],[25.860044988280606,39.215788983162973],[25.860351961659447,39.215903746177794],[25.860676988279724,39.216033983162035],[25.860817423386464,39.21612278065318],[25.861051099218784,39.216268040606117],[25.861366234968791,39.216596750523273],[25.861759214544222,39.216971893172548],[25.862268173686999,39.217386898181132],[25.86251906255772,39.217603396875759],[25.862676951443447,39.217779664241519],[25.862822044171423,39.218051492085742],[25.86301529294424,39.218405985894009],[25.863218189974695,39.218545773963818],[25.863389666705753,39.218656265659121],[25.863775420846633,39.218757368309568],[25.864300445350601,39.218909878028597],[25.864780467533084,39.219098864454061],[25.865175618851495,39.219265369183631],[25.865569352552015,39.219378257526387],[25.865970272657954,39.21947315013567],[25.866286793083383,39.219563434173097],[25.866501071814174,39.21955404033082],[25.866684243261155,39.219527265468471],[25.866812542910665,39.219453691941645],[25.8669925572285,39.21930777225819],[25.867073169432668,39.219169405712492],[25.867130648323116,39.219025450251742],[25.867172968098107,39.218887697554756],[25.867240472741457,39.218832977510168],[25.867394902962609,39.218878179332606],[25.86740777101264,39.219074644659621],[25.867361739873214,39.219361450624369],[25.867372317108988,39.219760584064403],[25.867464296289906,39.220051136746349],[25.867665074637191,39.220399542000898],[25.86778516364032,39.220594287643607],[25.868068610338881,39.220881768797291],[25.868313608344032,39.221163906321848],[25.868426673742693,39.221382602911746],[25.868474603315875,39.221745378323249],[25.868522059513303,39.222090282054559],[25.868598887327206,39.222387036516331],[25.868728537262967,39.222653144583674],[25.868952306136965,39.223001178440342],[25.86910367083625,39.223219259610111],[25.869186422875639,39.223450361355674],[25.869286389907025,39.223752703603559],[25.869407279744724,39.223977233240717],[25.869501083603151,39.224047244294738],[25.869638469918055,39.224027159458352],[25.869666734263792,39.223937309561151],[25.869661833553639,39.223752636258858],[25.869580818438422,39.22358706415168],[25.869535884946171,39.223337476355155],[25.869543615087355,39.223051284638593],[25.869619483857555,39.222734200294056],[25.869673008090597,39.222441313599887],[25.869756692524344,39.222130063410013],[25.869795214640622,39.221849336991646],[25.869887505139225,39.221573706972165],[25.870007039579829,39.221458552478225],[25.870163918061788,39.221307039704463],[25.870274369880757,39.221138393103978],[25.870268677455545,39.220923933755238],[25.870218931160689,39.220781698807478],[25.87019057958333,39.220579522816983],[25.870185203750015,39.220376977847472],[25.870224988383917,39.22014390891303],[25.870296197251808,39.219940134016689],[25.870445413390911,39.219788743916162],[25.87077795690082,39.21961652957004],[25.871073155783858,39.219480672751942],[25.871460728972206,39.219361210023052],[25.871803299923297,39.21927822779454],[25.872038336148652,39.219185053719251],[25.872270997525632,39.219002521192657],[25.872511632636936,39.218831779485896],[25.872730083200118,39.218691192750484],[25.872832181184769,39.2186973086352],[25.872970764798929,39.21879274944272]]},"properties":{"FID":1,"Id":0}}]
}